[
  {
    "OBJECT_NAME": "ARKTIKA-M 2",
    "OBJECT_ID": "2023-198A",
    "EPOCH": "2025-06-07T09:35:10.926528",
    "MEAN_MOTION": 2.00602927,
    "ECCENTRICITY": 0.6873263,
    "INCLINATION": 63.2293,
    "RA_OF_ASC_NODE": 195.4353,
    "ARG_OF_PERICENTER": 268.8576,
    "MEAN_ANOMALY": 18.4833,
    "EPHEMERIS_TYPE": 0,
    "CLASSIFICATION_TYPE": "U",
    "NORAD_CAT_ID": 58584,
    "ELEMENT_SET_NO": 999,
    "REV_AT_EPOCH": 1080,
    "BSTAR": 0,
    "MEAN_MOTION_DOT": 2.17e-06,
    "MEAN_MOTION_DDOT": 0
  },
  {
    "OBJECT_NAME": "TIANMU-1 11",
    "OBJECT_ID": "2023-205A",
    "EPOCH": "2025-06-07T20:33:10.749024",
    "MEAN_MOTION": 15.22081846,
    "ECCENTRICITY": 0.0008356,
    "INCLINATION": 97.3719,
    "RA_OF_ASC_NODE": 181.9653,
    "ARG_OF_PERICENTER": 236.6711,
    "MEAN_ANOMALY": 123.3725,
    "EPHEMERIS_TYPE": 0,
    "CLASSIFICATION_TYPE": "U",
    "NORAD_CAT_ID": 58645,
    "ELEMENT_SET_NO": 999,
    "REV_AT_EPOCH": 8049,
    "BSTAR": 0.00018221,
    "MEAN_MOTION_DOT": 4.104e-05,
    "MEAN_MOTION_DDOT": 0
  },
  {
    "OBJECT_NAME": "TIANMU-1 12",
    "OBJECT_ID": "2023-205B",
    "EPOCH": "2025-06-07T20:57:03.957408",
    "MEAN_MOTION": 15.22017526,
    "ECCENTRICITY": 0.0006702,
    "INCLINATION": 97.3706,
    "RA_OF_ASC_NODE": 181.8434,
    "ARG_OF_PERICENTER": 220.0828,
    "MEAN_ANOMALY": 139.9915,
    "EPHEMERIS_TYPE": 0,
    "CLASSIFICATION_TYPE": "U",
    "NORAD_CAT_ID": 58646,
    "ELEMENT_SET_NO": 999,
    "REV_AT_EPOCH": 8048,
    "BSTAR": 0.00020234,
    "MEAN_MOTION_DOT": 4.555e-05,
    "MEAN_MOTION_DDOT": 0
  },
  {
    "OBJECT_NAME": "TIANMU-1 13",
    "OBJECT_ID": "2023-205C",
    "EPOCH": "2025-06-07T20:09:29.462112",
    "MEAN_MOTION": 15.21990338,
    "ECCENTRICITY": 0.0007442,
    "INCLINATION": 97.3735,
    "RA_OF_ASC_NODE": 181.9427,
    "ARG_OF_PERICENTER": 197.153,
    "MEAN_ANOMALY": 162.9456,
    "EPHEMERIS_TYPE": 0,
    "CLASSIFICATION_TYPE": "U",
    "NORAD_CAT_ID": 58647,
    "ELEMENT_SET_NO": 999,
    "REV_AT_EPOCH": 8047,
    "BSTAR": 0.00019163,
    "MEAN_MOTION_DOT": 4.307e-05,
    "MEAN_MOTION_DDOT": 0
  },
  {
    "OBJECT_NAME": "TIANMU-1 14",
    "OBJECT_ID": "2023-205D",
    "EPOCH": "2025-06-07T21:20:06.724608",
    "MEAN_MOTION": 15.22011896,
    "ECCENTRICITY": 0.000829,
    "INCLINATION": 97.3664,
    "RA_OF_ASC_NODE": 181.5134,
    "ARG_OF_PERICENTER": 204.0065,
    "MEAN_ANOMALY": 156.0786,
    "EPHEMERIS_TYPE": 0,
    "CLASSIFICATION_TYPE": "U",
    "NORAD_CAT_ID": 58648,
    "ELEMENT_SET_NO": 999,
    "REV_AT_EPOCH": 8048,
    "BSTAR": 0.00019604,
    "MEAN_MOTION_DOT": 4.412e-05,
    "MEAN_MOTION_DDOT": 0
  },
  {
    "OBJECT_NAME": "TIANMU-1 19",
    "OBJECT_ID": "2023-208A",
    "EPOCH": "2025-06-07T20:03:07.029792",
    "MEAN_MOTION": 15.24113935,
    "ECCENTRICITY": 0.000572,
    "INCLINATION": 97.4276,
    "RA_OF_ASC_NODE": 271.0292,
    "ARG_OF_PERICENTER": 184.1928,
    "MEAN_ANOMALY": 175.9263,
    "EPHEMERIS_TYPE": 0,
    "CLASSIFICATION_TYPE": "U",
    "NORAD_CAT_ID": 58660,
    "ELEMENT_SET_NO": 999,
    "REV_AT_EPOCH": 8017,
    "BSTAR": 0.00024098,
    "MEAN_MOTION_DOT": 5.787e-05,
    "MEAN_MOTION_DDOT": 0
  },
  {
    "OBJECT_NAME": "TIANMU-1 20",
    "OBJECT_ID": "2023-208B",
    "EPOCH": "2025-06-07T20:07:22.951776",
    "MEAN_MOTION": 15.25314701,
    "ECCENTRICITY": 0.0007816,
    "INCLINATION": 97.4212,
    "RA_OF_ASC_NODE": 271.296,
    "ARG_OF_PERICENTER": 199.3007,
    "MEAN_ANOMALY": 160.7936,
    "EPHEMERIS_TYPE": 0,
    "CLASSIFICATION_TYPE": "U",
    "NORAD_CAT_ID": 58661,
    "ELEMENT_SET_NO": 999,
    "REV_AT_EPOCH": 8022,
    "BSTAR": 0.00023408,
    "MEAN_MOTION_DOT": 5.828e-05,
    "MEAN_MOTION_DDOT": 0
  },
  {
    "OBJECT_NAME": "TIANMU-1 21",
    "OBJECT_ID": "2023-208C",
    "EPOCH": "2025-06-07T20:10:49.513440",
    "MEAN_MOTION": 15.27236434,
    "ECCENTRICITY": 0.0007514,
    "INCLINATION": 97.4254,
    "RA_OF_ASC_NODE": 272.4764,
    "ARG_OF_PERICENTER": 196.4584,
    "MEAN_ANOMALY": 163.6412,
    "EPHEMERIS_TYPE": 0,
    "CLASSIFICATION_TYPE": "U",
    "NORAD_CAT_ID": 58662,
    "ELEMENT_SET_NO": 999,
    "REV_AT_EPOCH": 8028,
    "BSTAR": 0.00025543,
    "MEAN_MOTION_DOT": 6.748e-05,
    "MEAN_MOTION_DDOT": 0
  },
  {
    "OBJECT_NAME": "TIANMU-1 22",
    "OBJECT_ID": "2023-208D",
    "EPOCH": "2025-06-07T19:43:52.208256",
    "MEAN_MOTION": 15.24101,
    "ECCENTRICITY": 0.0003644,
    "INCLINATION": 97.4271,
    "RA_OF_ASC_NODE": 271.1191,
    "ARG_OF_PERICENTER": 202.9809,
    "MEAN_ANOMALY": 157.1266,
    "EPHEMERIS_TYPE": 0,
    "CLASSIFICATION_TYPE": "U",
    "NORAD_CAT_ID": 58663,
    "ELEMENT_SET_NO": 999,
    "REV_AT_EPOCH": 8018,
    "BSTAR": 0.00021733,
    "MEAN_MOTION_DOT": 5.209e-05,
    "MEAN_MOTION_DDOT": 0
  },
  {
    "OBJECT_NAME": "TIANMU-1 15",
    "OBJECT_ID": "2024-004A",
    "EPOCH": "2025-06-07T13:23:05.375040",
    "MEAN_MOTION": 15.21898354,
    "ECCENTRICITY": 0.0005715,
    "INCLINATION": 97.4651,
    "RA_OF_ASC_NODE": 341.1136,
    "ARG_OF_PERICENTER": 220.1579,
    "MEAN_ANOMALY": 139.9235,
    "EPHEMERIS_TYPE": 0,
    "CLASSIFICATION_TYPE": "U",
    "NORAD_CAT_ID": 58700,
    "ELEMENT_SET_NO": 999,
    "REV_AT_EPOCH": 7870,
    "BSTAR": 0.00018857,
    "MEAN_MOTION_DOT": 4.223e-05,
    "MEAN_MOTION_DDOT": 0
  },
  {
    "OBJECT_NAME": "TIANMU-1 16",
    "OBJECT_ID": "2024-004B",
    "EPOCH": "2025-06-07T19:19:34.251456",
    "MEAN_MOTION": 15.21939657,
    "ECCENTRICITY": 0.0005947,
    "INCLINATION": 97.4585,
    "RA_OF_ASC_NODE": 340.9071,
    "ARG_OF_PERICENTER": 225.9395,
    "MEAN_ANOMALY": 134.1352,
    "EPHEMERIS_TYPE": 0,
    "CLASSIFICATION_TYPE": "U",
    "NORAD_CAT_ID": 58701,
    "ELEMENT_SET_NO": 999,
    "REV_AT_EPOCH": 7874,
    "BSTAR": 0.00019556,
    "MEAN_MOTION_DOT": 4.388e-05,
    "MEAN_MOTION_DDOT": 0
  },
  {
    "OBJECT_NAME": "TIANMU-1 17",
    "OBJECT_ID": "2024-004C",
    "EPOCH": "2025-06-07T20:35:03.720480",
    "MEAN_MOTION": 15.22101632,
    "ECCENTRICITY": 0.0004586,
    "INCLINATION": 97.4622,
    "RA_OF_ASC_NODE": 341.2752,
    "ARG_OF_PERICENTER": 224.0078,
    "MEAN_ANOMALY": 136.0794,
    "EPHEMERIS_TYPE": 0,
    "CLASSIFICATION_TYPE": "U",
    "NORAD_CAT_ID": 58702,
    "ELEMENT_SET_NO": 999,
    "REV_AT_EPOCH": 7874,
    "BSTAR": 0.00019979,
    "MEAN_MOTION_DOT": 4.506e-05,
    "MEAN_MOTION_DDOT": 0
  },
  {
    "OBJECT_NAME": "TIANMU-1 18",
    "OBJECT_ID": "2024-004D",
    "EPOCH": "2025-06-07T20:09:13.375296",
    "MEAN_MOTION": 15.22010308,
    "ECCENTRICITY": 0.000469,
    "INCLINATION": 97.464,
    "RA_OF_ASC_NODE": 341.4116,
    "ARG_OF_PERICENTER": 209.7648,
    "MEAN_ANOMALY": 150.3322,
    "EPHEMERIS_TYPE": 0,
    "CLASSIFICATION_TYPE": "U",
    "NORAD_CAT_ID": 58703,
    "ELEMENT_SET_NO": 999,
    "REV_AT_EPOCH": 7874,
    "BSTAR": 0.00019317,
    "MEAN_MOTION_DOT": 4.342e-05,
    "MEAN_MOTION_DDOT": 0
  },
  {
    "OBJECT_NAME": "INSAT-3DS",
    "OBJECT_ID": "2024-033A",
    "EPOCH": "2025-06-07T22:03:29.019168",
    "MEAN_MOTION": 1.00270346,
    "ECCENTRICITY": 0.0001529,
    "INCLINATION": 0.0164,
    "RA_OF_ASC_NODE": 9.1508,
    "ARG_OF_PERICENTER": 66.4039,
    "MEAN_ANOMALY": 233.9437,
    "EPHEMERIS_TYPE": 0,
    "CLASSIFICATION_TYPE": "U",
    "NORAD_CAT_ID": 58990,
    "ELEMENT_SET_NO": 999,
    "REV_AT_EPOCH": 506,
    "BSTAR": 0,
    "MEAN_MOTION_DOT": -1.38e-06,
    "MEAN_MOTION_DDOT": 0
  }
]