58584,ARKTIKA-M 2,2023,717.84,-1.0,+,63.23,Active,0,MEO,Kazakhstan,Russia/USSR,Unknown,Unknown,Unknown,1 58584U 23198A   25158.39943202  .00000217  00000+0  00000+0 0  9994,2 58584  63.2293 195.4353 6873263 268.8576  18.4833  2.00602927 10808,2.00602927,0.6873263,MEO
58645,TIANMU-1 11,2023,94.61,-1.0,+,97.37,Active,0,LEO,PRC,China,Unknown,Unknown,Unknown,1 58645U 23205A   25158.85637441  .00004104  00000+0  18221-3 0  9994,2 58645  97.3719 181.9653 0008356 236.6711 123.3725 15.22081846 80498,15.22081846,0.0008356,LEO
58646,TIANMU-1 12,2023,94.61,-1.0,+,97.37,Active,0,LEO,PRC,China,Unknown,Unknown,Unknown,1 58646U 23205B   25158.87296247  .00004555  00000+0  20234-3 0  9999,2 58646  97.3706 181.8434 0006702 220.0828 139.9915 15.22017526 80487,15.22017526,0.0006702,LEO
58647,TIANMU-1 13,2023,94.61,-1.0,+,97.37,Active,0,LEO,PRC,China,Unknown,Unknown,Unknown,1 58647U 23205C   25158.83992433  .00004307  00000+0  19163-3 0  9990,2 58647  97.3735 181.9427 0007442 197.1530 162.9456 15.21990338 80474,15.21990338,0.0007442,LEO
58648,TIANMU-1 14,2023,94.61,-1.0,+,97.37,Active,0,LEO,PRC,China,Unknown,Unknown,Unknown,1 58648U 23205D   25158.88896672  .00004412  00000+0  19604-3 0  9991,2 58648  97.3664 181.5134 0008290 204.0065 156.0786 15.22011896 80485,15.22011896,0.000829,LEO
58660,TIANMU-1 19,2023,94.48,-1.0,+,97.43,Active,0,LEO,PRC,China,Unknown,Unknown,Unknown,1 58660U 23208A   25158.83549803  .00005787  00000+0  24098-3 0  9993,2 58660  97.4276 271.0292 0005720 184.1928 175.9263 15.24113935 80175,15.24113935,0.000572,LEO
58661,TIANMU-1 20,2023,94.41,-1.0,+,97.42,Active,0,LEO,PRC,China,Unknown,Unknown,Unknown,1 58661U 23208B   25158.83846009  .00005828  00000+0  23408-3 0  9992,2 58661  97.4212 271.2960 0007816 199.3007 160.7936 15.25314701 80224,15.25314701,0.0007816,LEO
58662,TIANMU-1 21,2023,94.29,-1.0,+,97.43,Active,0,LEO,PRC,China,Unknown,Unknown,Unknown,1 58662U 23208C   25158.84085085  .00006748  00000+0  25543-3 0  9997,2 58662  97.4254 272.4764 0007514 196.4584 163.6412 15.27236434 80284,15.27236434,0.0007514,LEO
58663,TIANMU-1 22,2023,94.48,-1.0,+,97.43,Active,0,LEO,PRC,China,Unknown,Unknown,Unknown,1 58663U 23208D   25158.82213204  .00005209  00000+0  21733-3 0  9990,2 58663  97.4271 271.1191 0003644 202.9809 157.1266 15.24101000 80188,15.24101,0.0003644,LEO
58700,TIANMU-1 15,2024,94.62,-1.0,+,97.47,Active,0,LEO,PRC,China,Unknown,Unknown,Unknown,1 58700U 24004A   25158.55770110  .00004223  00000+0  18857-3 0  9999,2 58700  97.4651 341.1136 0005715 220.1579 139.9235 15.21898354 78707,15.21898354,0.0005715,LEO
58701,TIANMU-1 16,2024,94.62,-1.0,+,97.46,Active,0,LEO,PRC,China,Unknown,Unknown,Unknown,1 58701U 24004B   25158.80525754  .00004388  00000+0  19556-3 0  9999,2 58701  97.4585 340.9071 0005947 225.9395 134.1352 15.21939657 78748,15.21939657,0.0005947,LEO
58702,TIANMU-1 17,2024,94.61,-1.0,+,97.46,Active,0,LEO,PRC,China,Unknown,Unknown,Unknown,1 58702U 24004C   25158.85768195  .00004506  00000+0  19979-3 0  9994,2 58702  97.4622 341.2752 0004586 224.0078 136.0794 15.22101632 78743,15.22101632,0.0004586,LEO
58703,TIANMU-1 18,2024,94.61,-1.0,+,97.46,Active,0,LEO,PRC,China,Unknown,Unknown,Unknown,1 58703U 24004D   25158.83973814  .00004342  00000+0  19317-3 0  9993,2 58703  97.4640 341.4116 0004690 209.7648 150.3322 15.22010308 78744,15.22010308,0.000469,LEO
58990,INSAT-3DS,2024,1436.12,-1.0,+,0.02,Active,0,GSO,India,India,Unknown,Unknown,Unknown,1 58990U 24033A   25158.91908587 -.00000138  00000+0  00000+0 0  9992,2 58990   0.0164   9.1508 0001529  66.4039 233.9437  1.00270346  5067,1.00270346,0.0001529,GEO
